{"type":"FeatureCollection","features":[{"type":"Feature","id":"hotel/thaksin","properties":{"id":"hotel/thaksin","name":"Thaksin Hotel","nameEn":"Thaksin Hotel","nameTh":"โรงแรมทิพย์","category":"hotel","_bbox":[99.961,8.447,99.961,8.447]},"geometry":{"type":"Point","coordinates":[99.961,8.447]}},{"type":"Feature","id":"hotel/phetphailin","properties":{"id":"hotel/phetphailin","name":"Phetphailin Hotel","nameEn":"Phetphailin Hotel","nameTh":"โรงแรมเพชรลดา","category":"hotel","_bbox":[99.9605,8.4455,99.9605,8.4455]},"geometry":{"type":"Point","coordinates":[99.9605,8.4455]}},{"type":"Feature","id":"hotel/thai-for","properties":{"id":"hotel/thai-for","name":"Thai For Hotel","nameEn":"Thai For Hotel","nameTh":"โรงแรมไทยเท่","category":"hotel","_bbox":[99.961,8.4445,99.961,8.4445]},"geometry":{"type":"Point","coordinates":[99.961,8.4445]}},{"type":"Feature","id":"hotel/sakon","properties":{"id":"hotel/sakon","name":"Sakon Hotel","nameEn":"Sakon Hotel","nameTh":"โรงแรมสากล","category":"hotel","_bbox":[99.961,8.443,99.961,8.443]},"geometry":{"type":"Point","coordinates":[99.961,8.443]}},{"type":"Feature","id":"hotel/nakhon-garden","properties":{"id":"hotel/nakhon-garden","name":"Nakhon Garden Hotel","nameEn":"Nakhon Garden Hotel","nameTh":"โรงแรมนครนิเวศน์","category":"hotel","_bbox":[99.964,8.443,99.964,8.443]},"geometry":{"type":"Point","coordinates":[99.964,8.443]}},{"type":"Feature","id":"hotel/siam","properties":{"id":"hotel/siam","name":"Siam Hotel","nameEn":"Siam Hotel","nameTh":"โรงแรมนคร","category":"hotel","_bbox":[99.9615,8.4415,99.9615,8.4415]},"geometry":{"type":"Point","coordinates":[99.9615,8.4415]}},{"type":"Feature","id":"hotel/thai-yotee","properties":{"id":"hotel/thai-yotee","name":"Thai Yotee Hotel","nameEn":"Thai Yotee Hotel","nameTh":"โรงแรมไทยโยตี๊","category":"hotel","_bbox":[99.9615,8.4405,99.9615,8.4405]},"geometry":{"type":"Point","coordinates":[99.9615,8.4405]}},{"type":"Feature","id":"hotel/grand-park","properties":{"id":"hotel/grand-park","name":"Grand Park Hotel","nameEn":"Grand Park Hotel","nameTh":"โรงแรมแกรนด์ปาร์ค","category":"hotel","_bbox":[99.9615,8.44,99.9615,8.44]},"geometry":{"type":"Point","coordinates":[99.9615,8.44]}},{"type":"Feature","id":"hotel/montithian","properties":{"id":"hotel/montithian","name":"Montithian Hotel","nameEn":"Montithian Hotel","nameTh":"โรงแรมมณีเพชร","category":"hotel","_bbox":[99.9615,8.4395,99.9615,8.4395]},"geometry":{"type":"Point","coordinates":[99.9615,8.4395]}},{"type":"Feature","id":"hotel/mueang-thong","properties":{"id":"hotel/mueang-thong","name":"Mueang Thong Hotel","nameEn":"Mueang Thong Hotel","nameTh":"โรงแรมเมืองลวง","category":"hotel","_bbox":[99.9615,8.4385,99.9615,8.4385]},"geometry":{"type":"Point","coordinates":[99.9615,8.4385]}},{"type":"Feature","id":"hotel/thai-pi","properties":{"id":"hotel/thai-pi","name":"Thai Pi Hotel","nameEn":"Thai Pi Hotel","nameTh":"โรงแรมไทยภิรมย์","category":"hotel","_bbox":[99.9615,8.438,99.9615,8.438]},"geometry":{"type":"Point","coordinates":[99.9615,8.438]}},{"type":"Feature","id":"hotel/udom","properties":{"id":"hotel/udom","name":"Udom Hotel","nameEn":"Udom Hotel","nameTh":"โรงแรมอุดม","category":"hotel","_bbox":[99.9615,8.437,99.9615,8.437]},"geometry":{"type":"Point","coordinates":[99.9615,8.437]}},{"type":"Feature","id":"hotel/bua-luang","properties":{"id":"hotel/bua-luang","name":"Bua Luang Hotel","nameEn":"Bua Luang Hotel","nameTh":"โรงแรมบัวหลวง","category":"hotel","_bbox":[99.9615,8.436,99.9615,8.436]},"geometry":{"type":"Point","coordinates":[99.9615,8.436]}},{"type":"Feature","id":"hotel/chok-chai","properties":{"id":"hotel/chok-chai","name":"Chok Chai Hotel","nameEn":"Chok Chai Hotel","nameTh":"โรงแรมไชยชีพ","category":"hotel","_bbox":[99.961,8.435,99.961,8.435]},"geometry":{"type":"Point","coordinates":[99.961,8.435]}},{"type":"Feature","id":"hotel/tawn-lotus","properties":{"id":"hotel/tawn-lotus","name":"Tawn Lotus Hotel","nameEn":"Tawn Lotus Hotel","nameTh":"โรงแรมท่าวังโลตัส","category":"hotel","_bbox":[99.966,8.417,99.966,8.417]},"geometry":{"type":"Point","coordinates":[99.966,8.417]}},{"type":"Feature","id":"temple/chamao","properties":{"id":"temple/chamao","name":"Wat Chamao","nameEn":"Wat Chamao","nameTh":"วัดชนาสวรรค์","category":"temple","_bbox":[99.967,8.429,99.967,8.429]},"geometry":{"type":"Point","coordinates":[99.967,8.429]}},{"type":"Feature","id":"temple/tha-pho","properties":{"id":"temple/tha-pho","name":"Wat Tha Pho","nameEn":"Wat Tha Pho","nameTh":"วัดท่าโพธิ์","category":"temple","_bbox":[99.962,8.429,99.962,8.429]},"geometry":{"type":"Point","coordinates":[99.962,8.429]}},{"type":"Feature","id":"temple/sao-thongtong","properties":{"id":"temple/sao-thongtong","name":"Wat Sao ThongTong","nameEn":"Wat Sao ThongTong","nameTh":"วัดเสาธงทอง","category":"temple","_bbox":[99.9605,8.4275,99.9605,8.4275]},"geometry":{"type":"Point","coordinates":[99.9605,8.4275]}},{"type":"Feature","id":"temple/100-year","properties":{"id":"temple/100-year","name":"100-Year Old Thai Style House","nameEn":"100-Year Old Thai Style House","nameTh":"เรือนไทยอายุ 100 ปี","category":"temple","_bbox":[99.958,8.431,99.958,8.431]},"geometry":{"type":"Point","coordinates":[99.958,8.431]}},{"type":"Feature","id":"temple/mum-pom","properties":{"id":"temple/mum-pom","name":"Wat Mum Pom","nameEn":"Wat Mum Pom","nameTh":"วัดมุมป่อม","category":"temple","_bbox":[99.9575,8.4325,99.9575,8.4325]},"geometry":{"type":"Point","coordinates":[99.9575,8.4325]}},{"type":"Feature","id":"temple/mahatat","properties":{"id":"temple/mahatat","name":"Wat Phra Mahathat Woramahawihan","nameEn":"Wat Phra Mahathat Woramahawihan","nameTh":"วัดพระมหาธาตุวรมหาวิหาร","category":"landmark","_bbox":[99.9638,8.4367,99.9638,8.4367]},"geometry":{"type":"Point","coordinates":[99.9638,8.4367]}},{"type":"Feature","id":"temple/na-praborommathat","properties":{"id":"temple/na-praborommathat","name":"Wat Na Praborommathat","nameEn":"Wat Na Praborommathat","nameTh":"วัดนางพระยา","category":"temple","_bbox":[99.966,8.428,99.966,8.428]},"geometry":{"type":"Point","coordinates":[99.966,8.428]}},{"type":"Feature","id":"temple/chaina","properties":{"id":"temple/chaina","name":"Wat Chaina","nameEn":"Wat Chaina","nameTh":"วัดนางาม","category":"temple","_bbox":[99.965,8.425,99.965,8.425]},"geometry":{"type":"Point","coordinates":[99.965,8.425]}},{"type":"Feature","id":"hospital/nakhon","properties":{"id":"hospital/nakhon","name":"Nakhon Hospital","nameEn":"Nakhon Hospital","nameTh":"โรงพยาบาลนครศรีธรรมราช","category":"hospital","_bbox":[99.961,8.448,99.961,8.448]},"geometry":{"type":"Point","coordinates":[99.961,8.448]}},{"type":"Feature","id":"hospital/nakhon-christian","properties":{"id":"hospital/nakhon-christian","name":"Nakhon Christian Hospital","nameEn":"Nakhon Christian Hospital","nameTh":"โรงพยาบาลคริสเตียน","category":"hospital","_bbox":[99.961,8.4505,99.961,8.4505]},"geometry":{"type":"Point","coordinates":[99.961,8.4505]}},{"type":"Feature","id":"hospital/maharat","properties":{"id":"hospital/maharat","name":"Maharat Hospital","nameEn":"Maharat Hospital","nameTh":"โรงพยาบาลมหาราช","category":"hospital","_bbox":[99.954,8.438,99.954,8.438]},"geometry":{"type":"Point","coordinates":[99.954,8.438]}},{"type":"Feature","id":"market/sombun","properties":{"id":"market/sombun","name":"Sombun Market","nameEn":"Sombun Market","nameTh":"ตลาดสมบูรณ์","category":"market","_bbox":[99.9615,8.4385,99.9615,8.4385]},"geometry":{"type":"Point","coordinates":[99.9615,8.4385]}},{"type":"Feature","id":"market/hua-it","properties":{"id":"market/hua-it","name":"Hua It Market","nameEn":"Hua It Market","nameTh":"ตลาดหัวอิฐ","category":"market","_bbox":[99.964,8.429,99.964,8.429]},"geometry":{"type":"Point","coordinates":[99.964,8.429]}},{"type":"Feature","id":"market/general","properties":{"id":"market/general","name":"Market","nameEn":"Market","nameTh":"ตลาด","category":"market","_bbox":[99.965,8.419,99.965,8.419]},"geometry":{"type":"Point","coordinates":[99.965,8.419]}},{"type":"Feature","id":"gov/stadium","properties":{"id":"gov/stadium","name":"Nakhon Si Thammarat Provincial Stadium","nameEn":"Nakhon Si Thammarat Provincial Stadium","nameTh":"สนามกีฬาจังหวัดนครศรีธรรมราช","category":"government","_bbox":[99.961,8.465,99.961,8.465]},"geometry":{"type":"Point","coordinates":[99.961,8.465]}},{"type":"Feature","id":"gov/tech-college","properties":{"id":"gov/tech-college","name":"Nakhon Si Thammarat Technical College","nameEn":"Nakhon Si Thammarat Technical College","nameTh":"วิทยาลัยเทคนิคนครศรีธรรมราช","category":"government","_bbox":[99.9615,8.464,99.9615,8.464]},"geometry":{"type":"Point","coordinates":[99.9615,8.464]}},{"type":"Feature","id":"gov/municipal","properties":{"id":"gov/municipal","name":"Nakhon Si Thammarat Municipal Office","nameEn":"Nakhon Si Thammarat Municipal Office","nameTh":"สำนักงานเทศบาลนครนครศรีธรรมราช","category":"government","_bbox":[99.9635,8.439,99.9635,8.439]},"geometry":{"type":"Point","coordinates":[99.9635,8.439]}},{"type":"Feature","id":"gov/police","properties":{"id":"gov/police","name":"Nakhon Si Thammarat Police Station","nameEn":"Nakhon Si Thammarat Police Station","nameTh":"สถานีตำรวจภูธรเมืองนครศรีธรรมราช","category":"government","_bbox":[99.966,8.439,99.966,8.439]},"geometry":{"type":"Point","coordinates":[99.966,8.439]}},{"type":"Feature","id":"gov/court","properties":{"id":"gov/court","name":"Nakhon Si Thammarat Law Court","nameEn":"Nakhon Si Thammarat Law Court","nameTh":"ศาลจังหวัดนครศรีธรรมราช","category":"government","_bbox":[99.964,8.434,99.964,8.434]},"geometry":{"type":"Point","coordinates":[99.964,8.434]}},{"type":"Feature","id":"tour/sinakhin-park","properties":{"id":"tour/sinakhin-park","name":"Somdet Phra Sinakhin Park","nameEn":"Somdet Phra Sinakhin Park","nameTh":"สวนสาธารณะเขาศรีวิชัย","category":"tourist","_bbox":[99.968,8.449,99.968,8.449]},"geometry":{"type":"Point","coordinates":[99.968,8.449]}},{"type":"Feature","id":"tour/phra-ngaon","properties":{"id":"tour/phra-ngaon","name":"Phra-nga-on Park","nameEn":"Phra-nga-on Park","nameTh":"สวนพระบรม","category":"tourist","_bbox":[99.97,8.444,99.97,8.444]},"geometry":{"type":"Point","coordinates":[99.97,8.444]}},{"type":"Feature","id":"tour/city-pillar","properties":{"id":"tour/city-pillar","name":"City Pillar Shrine","nameEn":"City Pillar Shrine","nameTh":"ศาลหลักเมือง","category":"tourist","_bbox":[99.965,8.4375,99.965,8.4375]},"geometry":{"type":"Point","coordinates":[99.965,8.4375]}},{"type":"Feature","id":"tour/na-mueang","properties":{"id":"tour/na-mueang","name":"Na Mueang Park","nameEn":"Na Mueang Park","nameTh":"สวนนาวีน้อย","category":"tourist","_bbox":[99.966,8.435,99.966,8.435]},"geometry":{"type":"Point","coordinates":[99.966,8.435]}},{"type":"Feature","id":"tour/rama5-monument","properties":{"id":"tour/rama5-monument","name":"7.5 King Rama V Monument","nameEn":"7.5 King Rama V Monument","nameTh":"อนุสาวรีย์ 7.5 รัชกาลที่ 5","category":"tourist","_bbox":[99.971,8.438,99.971,8.438]},"geometry":{"type":"Point","coordinates":[99.971,8.438]}},{"type":"Feature","id":"tour/city-wall","properties":{"id":"tour/city-wall","name":"NST City Wall & The North Gate","nameEn":"NST City Wall & The North Gate","nameTh":"กำแพงเมืองเก่าและประตูเมือง","category":"tourist","_bbox":[99.968,8.438,99.968,8.438]},"geometry":{"type":"Point","coordinates":[99.968,8.438]}},{"type":"Feature","id":"tour/semachai","properties":{"id":"tour/semachai","name":"Phra Semachai","nameEn":"Phra Semachai","nameTh":"พระเมธี","category":"tourist","_bbox":[99.9615,8.439,99.9615,8.439]},"geometry":{"type":"Point","coordinates":[99.9615,8.439]}},{"type":"Feature","id":"tour/suan-shrine","properties":{"id":"tour/suan-shrine","name":"Suan Shrine","nameEn":"Suan Shrine","nameTh":"เขาพระบรรทัด","category":"tourist","_bbox":[99.9625,8.44,99.9625,8.44]},"geometry":{"type":"Point","coordinates":[99.9625,8.44]}},{"type":"Feature","id":"tour/bhudhadha","properties":{"id":"tour/bhudhadha","name":"Phra Bhudhadha Si Hing Chapel","nameEn":"Phra Bhudhadha Si Hing Chapel","nameTh":"พระธรรมวิสุทธิมงคล","category":"tourist","_bbox":[99.963,8.439,99.963,8.439]},"geometry":{"type":"Point","coordinates":[99.963,8.439]}},{"type":"Feature","id":"tour/national-museum","properties":{"id":"tour/national-museum","name":"The National Museum of Nakhon Si Thammarat","nameEn":"The National Museum of Nakhon Si Thammarat","nameTh":"พิพิธภัณฑสถานแห่งชาติ นครศรีธรรมราช","category":"tourist","_bbox":[99.967,8.438,99.967,8.438]},"geometry":{"type":"Point","coordinates":[99.967,8.438]}},{"type":"Feature","id":"restaurant/dang-a","properties":{"id":"restaurant/dang-a","name":"Dang-a Restaurant","nameEn":"Dang-a Restaurant","nameTh":"ร้านดาคารา","category":"restaurant","_bbox":[99.965,8.435,99.965,8.435]},"geometry":{"type":"Point","coordinates":[99.965,8.435]}},{"type":"Feature","id":"restaurant/chao-ruea","properties":{"id":"restaurant/chao-ruea","name":"Chao Ruea Restaurant","nameEn":"Chao Ruea Restaurant","nameTh":"ร้านอาหารเจ๊เจ๊","category":"restaurant","_bbox":[99.965,8.4355,99.965,8.4355]},"geometry":{"type":"Point","coordinates":[99.965,8.4355]}},{"type":"Feature","id":"restaurant/ko-ang","properties":{"id":"restaurant/ko-ang","name":"Ko Ang Seafood Restaurant","nameEn":"Ko Ang Seafood Restaurant","nameTh":"ร้านอาหารเกาะอัง","category":"restaurant","_bbox":[99.964,8.432,99.964,8.432]},"geometry":{"type":"Point","coordinates":[99.964,8.432]}},{"type":"Feature","id":"restaurant/suan-luang","properties":{"id":"restaurant/suan-luang","name":"Suan Luang Restaurant","nameEn":"Suan Luang Restaurant","nameTh":"ร้านอาหารสวนหลวง","category":"restaurant","_bbox":[99.964,8.422,99.964,8.422]},"geometry":{"type":"Point","coordinates":[99.964,8.422]}}]}