{"type":"FeatureCollection","features":[{"type":"Feature","id":"flood-2024-12/pak-phanang-mouth","properties":{"id":"flood-2024-12/pak-phanang-mouth","name":"Pak Phanang mouth (lower)","nameEn":"Pak Phanang mouth (lower)","nameTh":"ปากพนังตอนล่าง","district":"Pak Phanang","severity":"high","households":28000,"source":"GISTDA Sentinel-1 SAR flood detection","eventStart":"2024-12-16","eventEnd":"2024-12-18","_bbox":[100.08,8.38,100.18,8.46]},"geometry":{"type":"Polygon","coordinates":[[[100.1,8.46],[100.16,8.46],[100.18,8.43],[100.18,8.4],[100.14,8.38],[100.1,8.4],[100.08,8.43],[100.1,8.46]]]}},{"type":"Feature","id":"flood-2024-12/pak-phanang-mid","properties":{"id":"flood-2024-12/pak-phanang-mid","name":"Pak Phanang mid-basin","nameEn":"Pak Phanang mid-basin","nameTh":"ลุ่มน้ำปากพนังตอนกลาง","district":"Pak Phanang","severity":"high","households":24000,"source":"GISTDA Sentinel-1 SAR flood detection","eventStart":"2024-12-16","eventEnd":"2024-12-18","_bbox":[100.03,8.43,100.11,8.48]},"geometry":{"type":"Polygon","coordinates":[[[100.04,8.48],[100.1,8.48],[100.11,8.45],[100.09,8.43],[100.05,8.43],[100.03,8.45],[100.04,8.48]]]}},{"type":"Feature","id":"flood-2024-12/pak-phanang-upper","properties":{"id":"flood-2024-12/pak-phanang-upper","name":"Pak Phanang upper basin","nameEn":"Pak Phanang upper basin","nameTh":"ลุ่มน้ำปากพนังตอนบน","district":"Pak Phanang","severity":"high","households":18000,"source":"GISTDA Sentinel-1 SAR flood detection","eventStart":"2024-12-16","eventEnd":"2024-12-18","_bbox":[99.99,8.45,100.07,8.5]},"geometry":{"type":"Polygon","coordinates":[[[100,8.5],[100.06,8.5],[100.07,8.47],[100.05,8.45],[100.01,8.46],[99.99,8.48],[100,8.5]]]}},{"type":"Feature","id":"flood-2024-12/pak-phanang-canal","properties":{"id":"flood-2024-12/pak-phanang-canal","name":"Pak Phanang Canal corridor","nameEn":"Pak Phanang Canal corridor","nameTh":"คลองปากพนัง","district":"Pak Phanang","severity":"high","households":12000,"source":"GISTDA Sentinel-1 SAR flood detection","eventStart":"2024-12-16","eventEnd":"2024-12-18","_bbox":[99.95,8.39,100.01,8.42]},"geometry":{"type":"Polygon","coordinates":[[[99.96,8.42],[100,8.42],[100.01,8.4],[99.98,8.39],[99.95,8.4],[99.96,8.42]]]}},{"type":"Feature","id":"flood-2024-12/tha-dee-floodplain-east","properties":{"id":"flood-2024-12/tha-dee-floodplain-east","name":"Tha Dee floodplain (east of NST City)","nameEn":"Tha Dee floodplain (east of NST City)","nameTh":"ที่ลุ่มคลองท่าดีตะวันออก","district":"Mueang NST","severity":"high","households":9500,"source":"GISTDA Sentinel-1 SAR flood detection","eventStart":"2024-12-16","eventEnd":"2024-12-18","_bbox":[99.97,8.39,100.04,8.43]},"geometry":{"type":"Polygon","coordinates":[[[99.98,8.43],[100.03,8.43],[100.04,8.4],[100,8.39],[99.97,8.4],[99.98,8.43]]]}},{"type":"Feature","id":"flood-2024-12/tha-dee-floodplain-west","properties":{"id":"flood-2024-12/tha-dee-floodplain-west","name":"Tha Dee floodplain (west of NST City)","nameEn":"Tha Dee floodplain (west of NST City)","nameTh":"ที่ลุ่มคลองท่าดีตะวันตก","district":"Mueang NST","severity":"medium","households":4200,"source":"GISTDA Sentinel-1 SAR flood detection","eventStart":"2024-12-16","eventEnd":"2024-12-18","_bbox":[99.91,8.41,99.97,8.44]},"geometry":{"type":"Polygon","coordinates":[[[99.92,8.44],[99.96,8.44],[99.97,8.42],[99.94,8.41],[99.91,8.42],[99.92,8.44]]]}},{"type":"Feature","id":"flood-2024-12/phra-phrom-east","properties":{"id":"flood-2024-12/phra-phrom-east","name":"Phra Phrom (eastern lowland)","nameEn":"Phra Phrom (eastern lowland)","nameTh":"พระพรหมตะวันออก","district":"Phra Phrom","severity":"medium","households":6500,"source":"GISTDA Sentinel-1 SAR flood detection","eventStart":"2024-12-16","eventEnd":"2024-12-18","_bbox":[99.95,8.42,100.01,8.46]},"geometry":{"type":"Polygon","coordinates":[[[99.96,8.46],[100,8.46],[100.01,8.43],[99.98,8.42],[99.95,8.43],[99.96,8.46]]]}},{"type":"Feature","id":"flood-2024-12/cha-uat-canal","properties":{"id":"flood-2024-12/cha-uat-canal","name":"Cha Uat Canal corridor","nameEn":"Cha Uat Canal corridor","nameTh":"คลองชะอวด","district":"Cha Uat","severity":"medium","households":4800,"source":"GISTDA Sentinel-1 SAR flood detection","eventStart":"2024-12-16","eventEnd":"2024-12-18","_bbox":[99.84,8.36,99.91,8.4]},"geometry":{"type":"Polygon","coordinates":[[[99.85,8.4],[99.9,8.4],[99.91,8.37],[99.87,8.36],[99.84,8.38],[99.85,8.4]]]}},{"type":"Feature","id":"flood-2024-12/cha-uat-town","properties":{"id":"flood-2024-12/cha-uat-town","name":"Cha Uat town (south)","nameEn":"Cha Uat town (south)","nameTh":"ชะอวดตอนใต้","district":"Cha Uat","severity":"low","households":2200,"source":"GISTDA Sentinel-1 SAR flood detection","eventStart":"2024-12-16","eventEnd":"2024-12-18","_bbox":[99.78,8.3,99.84,8.34]},"geometry":{"type":"Polygon","coordinates":[[[99.79,8.34],[99.83,8.34],[99.84,8.31],[99.81,8.3],[99.78,8.32],[99.79,8.34]]]}},{"type":"Feature","id":"flood-2024-12/hua-sai-coast","properties":{"id":"flood-2024-12/hua-sai-coast","name":"Hua Sai coast","nameEn":"Hua Sai coast","nameTh":"หัวไทรชายฝั่ง","district":"Hua Sai","severity":"medium","households":7800,"source":"GISTDA Sentinel-1 SAR flood detection","eventStart":"2024-12-16","eventEnd":"2024-12-18","_bbox":[100.04,8.27,100.16,8.32]},"geometry":{"type":"Polygon","coordinates":[[[100.06,8.32],[100.14,8.32],[100.16,8.28],[100.1,8.27],[100.04,8.29],[100.06,8.32]]]}}]}