{"type":"FeatureCollection","features":[{"type":"Feature","id":"hand/tha-dee","properties":{"id":"hand/tha-dee","name":"Tha Dee Canal","nameEn":"Tha Dee Canal","nameTh":"คลองท่าดี","waterway":"canal","flowClass":"fast","_canalStatus":"complete","_plannedReach":null,"_bbox":[99.748,8.43,99.965,8.49]},"geometry":{"type":"LineString","coordinates":[[99.748,8.49],[99.775,8.475],[99.81,8.46],[99.84,8.445],[99.87,8.44],[99.91,8.435],[99.94,8.43],[99.965,8.437]]}},{"type":"Feature","id":"hand/tha-wang","properties":{"id":"hand/tha-wang","name":"Tha Wang Canal","nameEn":"Tha Wang Canal","nameTh":"คลองท่าวัง","waterway":"canal","flowClass":"fast","_canalStatus":"complete","_plannedReach":null,"_bbox":[99.76,8.437,99.965,8.51]},"geometry":{"type":"LineString","coordinates":[[99.76,8.51],[99.8,8.49],[99.84,8.47],[99.88,8.46],[99.92,8.45],[99.965,8.437]]}},{"type":"Feature","id":"hand/royal-project-canal","properties":{"id":"hand/royal-project-canal","name":"Royal Project Canal","nameEn":"Royal Project Canal","nameTh":"คลองพระราชดำริ","waterway":"canal","flowClass":"fast","_canalStatus":"under-construction","_plannedReach":[0,3],"_bbox":[99.98,8.43,100.15,8.485]},"geometry":{"type":"LineString","coordinates":[[99.98,8.43],[100.01,8.43],[100.04,8.435],[100.07,8.445],[100.1,8.46],[100.13,8.475],[100.15,8.485]]}},{"type":"Feature","id":"hand/pak-phanang-upper","properties":{"id":"hand/pak-phanang-upper","name":"Pak Phanang Canal (upper)","nameEn":"Pak Phanang Canal (upper)","nameTh":"คลองปากพนัง (ตอนบน)","waterway":"canal","flowClass":"fast","_canalStatus":"complete","_plannedReach":null,"_bbox":[99.77,8.485,100.17,8.52]},"geometry":{"type":"LineString","coordinates":[[99.77,8.52],[99.82,8.51],[99.87,8.5],[99.92,8.49],[99.97,8.485],[100.02,8.49],[100.07,8.495],[100.12,8.495],[100.17,8.49]]}},{"type":"Feature","id":"hand/cha-uat","properties":{"id":"hand/cha-uat","name":"Cha Uat Canal","nameEn":"Cha Uat Canal","nameTh":"คลองชะอวด","waterway":"canal","flowClass":"medium","_canalStatus":"complete","_plannedReach":null,"_bbox":[99.68,8.42,99.91,8.445]},"geometry":{"type":"LineString","coordinates":[[99.68,8.42],[99.72,8.425],[99.77,8.43],[99.82,8.435],[99.87,8.44],[99.91,8.445]]}},{"type":"Feature","id":"hand/nakhon-noi","properties":{"id":"hand/nakhon-noi","name":"Nakhon Noi Canal","nameEn":"Nakhon Noi Canal","nameTh":"คลองนครน้อย","waterway":"canal","flowClass":"medium","_canalStatus":"complete","_plannedReach":null,"_bbox":[99.99,8.42,100.18,8.49]},"geometry":{"type":"LineString","coordinates":[[99.99,8.42],[100.03,8.425],[100.07,8.43],[100.11,8.445],[100.15,8.47],[100.18,8.49]]}},{"type":"Feature","id":"hand/phra-phrom","properties":{"id":"hand/phra-phrom","name":"Phra Phrom Canal","nameEn":"Phra Phrom Canal","nameTh":"คลองพระพรหม","waterway":"canal","flowClass":"medium","_canalStatus":"complete","_plannedReach":null,"_bbox":[99.89,8.45,100,8.47]},"geometry":{"type":"LineString","coordinates":[[99.89,8.47],[99.92,8.465],[99.95,8.46],[99.975,8.455],[100,8.45]]}},{"type":"Feature","id":"hand/ban-na","properties":{"id":"hand/ban-na","name":"Ban Na Canal","nameEn":"Ban Na Canal","nameTh":"คลองบ้านนา","waterway":"canal","flowClass":"medium","_canalStatus":"complete","_plannedReach":null,"_bbox":[99.87,8.465,100.07,8.49]},"geometry":{"type":"LineString","coordinates":[[99.87,8.49],[99.91,8.485],[99.95,8.48],[99.99,8.475],[100.03,8.47],[100.07,8.465]]}}]}