{"type":"FeatureCollection","features":[{"type":"Feature","id":"hwy/41","properties":{"id":"hwy/41","routeNumber":"41","class":"national","name":"Highway 41 (NST-Krabi-Trang-Phatthalung)","nameEn":"Highway 41 (NST-Krabi-Trang-Phatthalung)","nameTh":"ทางหลวงแผ่นดิน 41","_bbox":[99.5,8,99.85,9.3]},"geometry":{"type":"LineString","coordinates":[[99.5,9.3],[99.55,9.1],[99.6,8.9],[99.7,8.7],[99.78,8.51],[99.85,8.3],[99.83,8.13],[99.8,8]]}},{"type":"Feature","id":"hwy/4","properties":{"id":"hwy/4","routeNumber":"4","class":"national","name":"Highway 4 (Phetkasem)","nameEn":"Highway 4 (Phetkasem)","nameTh":"ทางหลวงแผ่นดิน 4","_bbox":[99.85,8.2,100.18,8.2]},"geometry":{"type":"LineString","coordinates":[[99.85,8.2],[99.97,8.2],[100.04,8.2],[100.1,8.2],[100.18,8.2]]}},{"type":"Feature","id":"hwy/401","properties":{"id":"hwy/401","routeNumber":"401","class":"provincial","name":"Highway 401 (NST → Phatthalung)","nameEn":"Highway 401 (NST → Phatthalung)","nameTh":"ทางหลวง 401","_bbox":[99.85,8.3,100.18,8.5]},"geometry":{"type":"LineString","coordinates":[[99.85,8.3],[99.95,8.4],[100.04,8.45],[100.1,8.5],[100.18,8.49]]}},{"type":"Feature","id":"hwy/403","properties":{"id":"hwy/403","routeNumber":"403","class":"provincial","name":"Highway 403 (NST → Pak Phanang)","nameEn":"Highway 403 (NST → Pak Phanang)","nameTh":"ทางหลวง 403","_bbox":[99.96,8.3,100.18,8.5]},"geometry":{"type":"LineString","coordinates":[[99.96,8.3],[99.97,8.38],[99.98,8.44],[100.04,8.48],[100.12,8.5],[100.18,8.49]]}},{"type":"Feature","id":"hwy/408","properties":{"id":"hwy/408","routeNumber":"408","class":"provincial","name":"Highway 408 (NST → Pak Phanang Bay)","nameEn":"Highway 408 (NST → Pak Phanang Bay)","nameTh":"ทางหลวง 408","_bbox":[99.95,8.4,100.2,8.47]},"geometry":{"type":"LineString","coordinates":[[99.95,8.4],[100.04,8.45],[100.13,8.47],[100.18,8.46],[100.2,8.42]]}},{"type":"Feature","id":"hwy/4103","properties":{"id":"hwy/4103","routeNumber":"4103","class":"provincial","name":"Highway 4103 (NST → Tha Sala)","nameEn":"Highway 4103 (NST → Tha Sala)","nameTh":"ทางหลวง 4103","_bbox":[99.9,8.45,99.95,8.7]},"geometry":{"type":"LineString","coordinates":[[99.95,8.45],[99.92,8.55],[99.9,8.65],[99.93,8.7]]}},{"type":"Feature","id":"hwy/4104","properties":{"id":"hwy/4104","routeNumber":"4104","class":"provincial","name":"Highway 4104 (NST → Nop Phi Ta)","nameEn":"Highway 4104 (NST → Nop Phi Ta)","nameTh":"ทางหลวง 4104","_bbox":[99.66,8.51,99.78,8.7]},"geometry":{"type":"LineString","coordinates":[[99.78,8.51],[99.72,8.62],[99.66,8.7]]}},{"type":"Feature","id":"hwy/4141","properties":{"id":"hwy/4141","routeNumber":"4141","class":"provincial","name":"Highway 4141 (Prom Khiri → NST)","nameEn":"Highway 4141 (Prom Khiri → NST)","nameTh":"ทางหลวง 4141","_bbox":[99.78,8.44,99.96,8.51]},"geometry":{"type":"LineString","coordinates":[[99.78,8.51],[99.85,8.48],[99.92,8.45],[99.96,8.44]]}},{"type":"Feature","id":"hwy/4142","properties":{"id":"hwy/4142","routeNumber":"4142","class":"provincial","name":"Highway 4142 (Khanom → Si Chon)","nameEn":"Highway 4142 (Khanom → Si Chon)","nameTh":"ทางหลวง 4142","_bbox":[99.5,9.05,99.78,9.2]},"geometry":{"type":"LineString","coordinates":[[99.5,9.2],[99.65,9.1],[99.78,9.05]]}},{"type":"Feature","id":"hwy/4151","properties":{"id":"hwy/4151","routeNumber":"4151","class":"provincial","name":"Highway 4151 (Phra Phrom)","nameEn":"Highway 4151 (Phra Phrom)","nameTh":"ทางหลวง 4151","_bbox":[99.96,8.28,100.04,8.42]},"geometry":{"type":"LineString","coordinates":[[99.96,8.42],[99.97,8.38],[100,8.32],[100.04,8.28]]}},{"type":"Feature","id":"hwy/4153","properties":{"id":"hwy/4153","routeNumber":"4153","class":"provincial","name":"Highway 4153 (NST → Hua Sai)","nameEn":"Highway 4153 (NST → Hua Sai)","nameTh":"ทางหลวง 4153","_bbox":[99.95,8.3,100.13,8.4]},"geometry":{"type":"LineString","coordinates":[[99.95,8.4],[100.02,8.36],[100.08,8.32],[100.13,8.3]]}},{"type":"Feature","id":"hwy/4157","properties":{"id":"hwy/4157","routeNumber":"4157","class":"provincial","name":"Highway 4157 (Hua Sai coast)","nameEn":"Highway 4157 (Hua Sai coast)","nameTh":"ทางหลวง 4157","_bbox":[100.1,8.28,100.18,8.32]},"geometry":{"type":"LineString","coordinates":[[100.1,8.32],[100.14,8.3],[100.18,8.28]]}},{"type":"Feature","id":"hwy/4182","properties":{"id":"hwy/4182","routeNumber":"4182","class":"provincial","name":"Highway 4182 (Si Chon)","nameEn":"Highway 4182 (Si Chon)","nameTh":"ทางหลวง 4182","_bbox":[99.78,8.95,99.88,9.05]},"geometry":{"type":"LineString","coordinates":[[99.78,9.05],[99.83,9],[99.88,8.95]]}},{"type":"Feature","id":"hwy/4184","properties":{"id":"hwy/4184","routeNumber":"4184","class":"provincial","name":"Highway 4184 (Phrom Khiri)","nameEn":"Highway 4184 (Phrom Khiri)","nameTh":"ทางหลวง 4184","_bbox":[99.65,8.45,99.78,8.51]},"geometry":{"type":"LineString","coordinates":[[99.78,8.51],[99.72,8.48],[99.65,8.45]]}},{"type":"Feature","id":"hwy/4186","properties":{"id":"hwy/4186","routeNumber":"4186","class":"provincial","name":"Highway 4186 (Nop Phi Ta)","nameEn":"Highway 4186 (Nop Phi Ta)","nameTh":"ทางหลวง 4186","_bbox":[99.66,8.7,99.78,8.8]},"geometry":{"type":"LineString","coordinates":[[99.78,8.7],[99.72,8.75],[99.66,8.8]]}},{"type":"Feature","id":"hwy/4188","properties":{"id":"hwy/4188","routeNumber":"4188","class":"provincial","name":"Highway 4188 (Pak Phanang east)","nameEn":"Highway 4188 (Pak Phanang east)","nameTh":"ทางหลวง 4188","_bbox":[100.13,8.42,100.22,8.47]},"geometry":{"type":"LineString","coordinates":[[100.13,8.47],[100.18,8.45],[100.22,8.42]]}},{"type":"Feature","id":"hwy/4194","properties":{"id":"hwy/4194","routeNumber":"4194","class":"provincial","name":"Highway 4194 (NST → Chawang)","nameEn":"Highway 4194 (NST → Chawang)","nameTh":"ทางหลวง 4194","_bbox":[99.5,8.4,99.78,8.42]},"geometry":{"type":"LineString","coordinates":[[99.78,8.4],[99.65,8.41],[99.5,8.42]]}},{"type":"Feature","id":"hwy/4195","properties":{"id":"hwy/4195","routeNumber":"4195","class":"provincial","name":"Highway 4195 (Chawang east)","nameEn":"Highway 4195 (Chawang east)","nameTh":"ทางหลวง 4195","_bbox":[99.5,8.42,99.85,8.5]},"geometry":{"type":"LineString","coordinates":[[99.5,8.42],[99.62,8.45],[99.75,8.5],[99.85,8.48]]}},{"type":"Feature","id":"hwy/4201","properties":{"id":"hwy/4201","routeNumber":"4201","class":"provincial","name":"Highway 4201 (NST south)","nameEn":"Highway 4201 (NST south)","nameTh":"ทางหลวง 4201","_bbox":[99.84,8.2,99.92,8.4]},"geometry":{"type":"LineString","coordinates":[[99.92,8.4],[99.88,8.3],[99.84,8.2]]}},{"type":"Feature","id":"hwy/4214","properties":{"id":"hwy/4214","routeNumber":"4214","class":"provincial","name":"Highway 4214 (Thung Yai / Lan Saka)","nameEn":"Highway 4214 (Thung Yai / Lan Saka)","nameTh":"ทางหลวง 4214","_bbox":[99.5,8.1,99.78,8.36]},"geometry":{"type":"LineString","coordinates":[[99.5,8.1],[99.65,8.25],[99.78,8.36]]}},{"type":"Feature","id":"hwy/4225","properties":{"id":"hwy/4225","routeNumber":"4225","class":"provincial","name":"Highway 4225 (Ron Phibun)","nameEn":"Highway 4225 (Ron Phibun)","nameTh":"ทางหลวง 4225","_bbox":[99.72,8,99.85,8.2]},"geometry":{"type":"LineString","coordinates":[[99.85,8.2],[99.78,8.1],[99.72,8]]}},{"type":"Feature","id":"hwy/4232","properties":{"id":"hwy/4232","routeNumber":"4232","class":"provincial","name":"Highway 4232 (Si Chon)","nameEn":"Highway 4232 (Si Chon)","nameTh":"ทางหลวง 4232","_bbox":[99.7,9,99.85,9.05]},"geometry":{"type":"LineString","coordinates":[[99.85,9.05],[99.78,9.05],[99.7,9]]}}]}