{"type":"FeatureCollection","features":[{"type":"Feature","id":"hand/maenam-tapi","properties":{"id":"hand/maenam-tapi","name":"Tapi River","nameEn":"Tapi River","nameTh":"แม่น้ำตาปี","waterway":"river","flowClass":"regional","_canalStatus":"complete","_riverLengthKm":230,"_riverBadge":"Longest river in southern Thailand · แม่น้ำที่ยาวที่สุดในภาคใต้","_riverSource":{"en":"Source: Khao Luang range, Amphoe Phipun, NST province","th":"ต้นกำเนิด: เทือกเขาหลวง อ.พิปูน จ.นครศรีธรรมราช"},"_riverMouth":{"en":"Mouth: Ao Ban Don, Mueang Surat Thani","th":"ปลาย: อ่าวบ้านดอน อ.เมืองสุราษฎร์ธานี"},"_bbox":[99.14,8.72,99.61,9.19]},"geometry":{"type":"LineString","coordinates":[[99.61,8.72],[99.595,8.78],[99.58,8.85],[99.555,8.91],[99.515,8.985],[99.46,9.06],[99.39,9.13],[99.32,9.165],[99.25,9.18],[99.18,9.19],[99.145,9.18],[99.14,9.15],[99.165,9.115],[99.18,9.08]]}}]}